ASTROCAST-0403          
1 55111U 23001DG  26068.82333059  .00013959  00000+0  51317-3 0  9990
2 55111  97.5604 161.3228 0004771 338.0704  22.0330 15.28004949129377
STARLINK-30966          
1 58454U 23183T   26068.28514043  .00001471  00000+0  62947-4 0  9996
2 58454  43.0015  43.7959 0001602 275.5141  84.5528 15.27588736126678
